sat42902
1 42902U 17044C   20046.89529364  .00029661  00000-0  27357-3 0  9992
2 42902  97.1320 134.2002 0004385 153.5384 206.6103 15.67558131143886
